{"fetched_at":"2026-03-30T06:02:59Z","count":15439,"tles":[{"name":"STARLINK-4127","line1":"1 53258U 22086S   26087.76469194 -.00000267  00000+0  13050-5 0  9999","line2":"2 53258  53.2161 108.4915 0001370  79.7482 280.3665 15.08835045203946","category":"Starlink"}]}