{
  "norad_id": 53258,
  "name": "STARLINK-4127",
  "history": [
    {
      "epoch": "2026-03-28T18:21:09.383616Z",
      "apogee_km": 540.7066320412714,
      "perigee_km": 538.8104368752765,
      "latitude_deg": 3.1489288902523686e-05,
      "longitude_deg": 7.02197437125395,
      "height_km": 540.4853775057838,
      "semi_major_axis_km": 6917.895534458274,
      "eccentricity": 0.00013705,
      "inclination_deg": 53.2161,
      "raan_deg": 108.4915,
      "arg_perigee_deg": 79.7482,
      "mean_anomaly_deg": 280.3665,
      "mean_motion_rev_day": 15.08835045
    }
  ]
}